{"fetched_at":"2026-03-29T16:36:15Z","count":15609,"tles":[{"name":"STARLINK-2567","line1":"1 48276U 21036A   26087.89405424  .00002338  00000+0  15452-3 0  9993","line2":"2 48276  53.0798 320.2111 0001422  92.5841 267.5313 15.11304727271704","category":"Starlink"}]}