{
  "norad_id": 48276,
  "name": "STARLINK-2567",
  "history": [
    {
      "epoch": "2026-03-28T21:27:26.286336Z",
      "apogee_km": 533.2025978243364,
      "perigee_km": 531.2372923091589,
      "latitude_deg": -1.7471953612061094e-05,
      "longitude_deg": 172.043604549739,
      "height_km": 533.1461767875027,
      "semi_major_axis_km": 6910.356945066747,
      "eccentricity": 0.0001422,
      "inclination_deg": 53.0798,
      "raan_deg": 320.2111,
      "arg_perigee_deg": 92.5841,
      "mean_anomaly_deg": 267.5313,
      "mean_motion_rev_day": 15.11304727
    }
  ]
}